ONEWEB-0551             
1 56053U 23043H   23122.00002315 -.01760788  00000+0 -14422+0 0  9992
2 56053  87.5013 129.8338 0015535 146.1800  81.6918 15.02750047  6558
ONEWEB-0552             
1 56054U 23043J   23122.00002315 -.01339103  00000+0 -15924+0 0  9994
2 56054  87.0171 129.3760 0016564 127.2487 151.4979 14.87829728  6533
ONEWEB-0553             
1 56055U 23043K   23121.91667824 -.01143810  00000+0 -11962+0 0  9992
2 56055  86.9717 129.3282 0016430 129.0326 153.6254 14.92971944  1305
ONEWEB-0554             
1 56056U 23043L   23122.00002315 -.01203716  00000+0 -12661+0 0  9991
2 56056  86.9651 129.2925 0016137 126.3179 263.5565 14.92400150  6549
ONEWEB-0555             
1 56057U 23043M   23122.00002315 -.01220330  00000+0 -13309+0 0  9993
2 56057  86.9541 129.2872 0016733 133.8706 122.5728 14.90994747  6532
ONEWEB-0557             
1 56058U 23043N   23122.00002315 -.01199330  00000+0 -12384+0 0  9991
2 56058  86.9701 129.2869 0015933 124.5736 296.0775 14.93121984  6546
ONEWEB-0558             
1 56059U 23043P   23122.00002315 -.01338153  00000+0 -14093+0 0  9999
2 56059  87.0487 129.3892 0012819 120.9980 158.2527 14.92734703  6540
ONEWEB-0559             
1 56060U 23043Q   23122.00002315 -.01332152  00000+0 -15374+0 0  9997
2 56060  87.0247 129.3683 0014162 123.5383 281.9864 14.89056735  6549
ONEWEB-0566             
1 56061U 23043R   23122.00002315 -.01314931  00000+0 -15104+0 0  9994
2 56061  87.0268 129.3759 0015050 123.6400 224.2710 14.89187943  6530
ONEWEB-0568             
1 56062U 23043S   23122.00002315 -.01209494  00000+0 -13585+0 0  9993
2 56062  86.9516 129.2910 0014954 142.4658 328.0718 14.89821414  6538
ONEWEB-0574             
1 56063U 23043T   23122.00002315 -.01324800  00000+0 -14693+0 0  9994
2 56063  87.0301 129.3514 0012056 122.1400  30.8824 14.90660333  6545
ONEWEB-0575             
1 56064U 23043U   23121.91667824 -.01166400  00000+0 -13039+0 0  9999
2 56064  86.9525 129.3288 0016102 143.7734 250.0917 14.89884656  1307
ONEWEB-0576             
1 56065U 23043V   23121.91667824 -.01172489  00000+0 -12780+0 0  9996
2 56065  86.9598 129.3386 0016089 133.8692 348.6185 14.90909099  1306
ONEWEB-0577             
1 56066U 23043W   23122.00002315 -.01197845  00000+0 -11577+0 0  9992
2 56066  87.0090 129.3639 0017276 139.1847   5.8926 14.95686144  6541
ONEWEB-0578             
1 56067U 23043X   23122.00002315 -.01333725  00000+0 -15406+0 0  9997
2 56067  87.0245 129.3659 0014352 123.5889 259.1511 14.89021698  6545
ONEWEB-0579             
1 56068U 23043Y   23121.91667824 -.01287809  00000+0 -12959+0 0  9990
2 56068  87.0579 129.3995 0011574 125.1559 346.0532 14.94418706  1308
ONEWEB-0581             
1 56069U 23043Z   23122.00002315 -.01201909  00000+0 -13362+0 0  9996
2 56069  86.9518 129.2924 0016746 138.4078  32.9295 14.90183510  6535
ONEWEB-0609             
1 56070U 23043AA  23122.00002315 -.01236208  00000+0 -13838+0 0  9996
2 56070  87.5438 130.0864 0013497 128.3671 207.8835 14.90046483  6524
ONEWEB-0613             
1 56071U 23043AB  23121.91667824 -.01308106  00000+0 -15669+0 0  9999
2 56071  87.5495 130.1665 0015625 142.6294 152.3609 14.87471961  1306
ONEWEB-0630             
1 56072U 23043AC  23122.00002315 -.01385012  00000+0 -15072+0 0  9998
2 56072  87.5319 130.1034 0014554 134.9818 342.2829 14.91529052  6521
ONEWEB-0632             
1 56073U 23043AD  23122.00002315 -.01250751  00000+0 -14800+0 0  9998
2 56073  87.5411 130.1089 0009768 133.9668  37.0742 14.87901152  6521
ONEWEB-0633             
1 56074U 23043AE  23121.91667824 -.01289774  00000+0 -14383+0 0  9993
2 56074  87.5023 130.0172 0012600 128.9388 140.8033 14.90345946  1309
ONEWEB-0634             
1 56075U 23043AF  23121.91667824 -.01198729  00000+0 -15076+0 0  9993
2 56075  87.5502 130.1213 0010803 122.2596 346.4360 14.85275851  1308
ONEWEB-0635             
1 56076U 23043AG  23122.00002315 -.01325046  00000+0 -15719+0 0  9991
2 56076  87.5440 130.1370 0015765 133.7033 282.5199 14.87904153  6524
ONEWEB-0636             
1 56077U 23043AH  23122.00002315 -.01365500  00000+0 -15878+0 0  9997
2 56077  87.5490 130.1330 0012670 117.1986  11.5397 14.88861451  6525
ONEWEB-0637             
1 56078U 23043AJ  23122.00002315 -.01323751  00000+0 -14378+0 0  9994
2 56078  87.5371 130.1018 0012978 145.4550 357.2822 14.91475195  6522
ONEWEB-0647             
1 56079U 23043AK  23122.00002315 -.01342776  00000+0 -15029+0 0  9997
2 56079  87.5348 130.0987 0014687 119.3513  70.3106 14.90301901  5618
ONEWEB-0651             
1 56080U 23043AL  23121.91667824 -.01280286  00000+0 -14953+0 0  9992
2 56080  87.5386 130.1168 0016103 126.9487 336.1169 14.88413150  1304
ONEWEB-0718             
1 56081U 23043AM  23122.00002315 -.01341228  00000+0 -14707+0 0  9993
2 56081  87.5332 130.0811 0014096 120.8196 128.3582 14.91124268  6521
GSLV R/B                
1 56082U 23043AN  23121.55502829  .00017980  00000+0  46118-3 0  9995
2 56082  87.4138 129.7652 0021623 240.2230 119.6874 15.38979457  5608
